country,region,city,postcode,road,road_numbers
,NC,Monroe,,Maurice St.,503
,NC,Monroe,,Maurice Street,503
,CO,Telluride,Unit,Mahoney Drive,81432
,CA,.,Suite 905Inglewood,S. La Cienega,9800
,,Woodbridge,NJ 07095,Fulton Street,325
,,Columbus,Ohio 43230,Wyandotte Dr,4640
,,New York,,Gifford Street,13204
,,Meridian,Idaho 83642,S. Jade Way,1739
,ME,ESTATE PROFESSIONALS,WHO ARE,,
,,South Portland,Maine 04106,Dean Drive,50
,TN,Knoxville,,Sony Lane,8904
,,Washington,,. Port,
,NY,Levittown,,Hempstead Tpke,11756
USA,OH,Medina,,North Broadway Street,400
,,Medina,Ohio 44256,N. Broadway Street,400
,OH,Medina,,N. Broadway St.,400
,NC,,,West Fort Macon Rd,125
,SC,,,Boiling Springs,117
,ME,Lewiston,04240,Crowley Rd,116
,VA,Purcellville,,East Main Street,609
,NY,New York,,Lexington Avenue,10022
,,New Haven,CT 06510,Elm Street,59
,,Ottertail,MN 56571,Thumper Lodge,300
,,,MISSION STATEME,Hill Photography,nine
,PA,Philadelphia,19134,N. Amber Street,2745
,PA,Gibsonia,15044,Oak Road,345
,,,,monthsThis cookie is set by GDPR,11
,,,,monthsThe cookie is set by GDPR,11
,,,,monthsThe cookie is set by the GDPR,11
,IL,Village,,E. Devon,60007
,GA,Atlanta,,SE STE,1000
,OH,Sharonville,45241,Enterprise Park Drive,11413
